[
    {
        "Altitude(m)": 607911.0046943218,
        "Argument of Periapsis(deg)": 0.0,
        "Eccentricity": 0.0,
        "Inclination(deg)": 60.0,
        "Latitude(deg)": -14.292919737747441,
        "Longitude(deg)": 13.442678624991492,
        "Mean Anomaly(deg)": -163.6364,
        "RAAN(deg)": 285.0,
        "Satellite Name": "Test1 1266",
        "Satellite Number": 1266,
        "Semi-Major Axis(m)": 6980739.136638005,
        "Time(s)": 0
    },
    {
        "Altitude(m)": 608060.2380266425,
        "Argument of Periapsis(deg)": 0.00010418945913296404,
        "Eccentricity": 0.0,
        "Inclination(deg)": 60.0,
        "Latitude(deg)": -14.826580519245868,
        "Longitude(deg)": 13.731289246301769,
        "Mean Anomaly(deg)": -163.01629385453816,
        "RAAN(deg)": 284.9995799508602,
        "Satellite Name": "Test1 1266",
        "Satellite Number": 1266,
        "Semi-Major Axis(m)": 6980739.136638005,
        "Time(s)": 10
    }
]